KAZSTSAT                
1 43783U 18099AB  26068.61895971  .00001354  00000+0  11446-3 0  9991
2 43783  97.4396 105.0128 0006528  11.1145 349.0222 14.99620503396386
STARLINK-5307           
1 55658U 23021AG  26068.75231260 -.00000224  00000+0 -10970-4 0  9995
2 55658  70.0011 184.1828 0003547 269.3273  90.7479 14.98334081168803
